[{"OBJECT_NAME":"ONEWEB-0267","OBJECT_ID":"2021-060U","EPOCH":"2026-02-07T00:48:54.143136","MEAN_MOTION":13.16593969,"ECCENTRICITY":0.000129,"INCLINATION":87.9001,"RA_OF_ASC_NODE":254.6787,"ARG_OF_PERICENTER":89.5476,"MEAN_ANOMALY":270.5803,"EPHEMERIS_TYPE":0,"CLASSIFICATION_TYPE":"U","NORAD_CAT_ID":48985,"ELEMENT_SET_NO":999,"REV_AT_EPOCH":22246,"BSTAR":0.00026861985,"MEAN_MOTION_DOT":1.16e-6,"MEAN_MOTION_DDOT":0},{"OBJECT_NAME":"ONEWEB-0268","OBJECT_ID":"2021-060V","EPOCH":"2026-02-07T03:42:10.798560","MEAN_MOTION":13.1659561,"ECCENTRICITY":0.00014483,"INCLINATION":87.9003,"RA_OF_ASC_NODE":254.6638,"ARG_OF_PERICENTER":87.1012,"MEAN_ANOMALY":273.0284,"EPHEMERIS_TYPE":0,"CLASSIFICATION_TYPE":"U","NORAD_CAT_ID":48986,"ELEMENT_SET_NO":999,"REV_AT_EPOCH":22274,"BSTAR":-3.0023771e-5,"MEAN_MOTION_DOT":1.0e-8,"MEAN_MOTION_DDOT":0},{"OBJECT_NAME":"ONEWEB-0269","OBJECT_ID":"2021-060W","EPOCH":"2026-02-07T03:14:48.815808","MEAN_MOTION":13.16594845,"ECCENTRICITY":0.00015945,"INCLINATION":87.8993,"RA_OF_ASC_NODE":254.6849,"ARG_OF_PERICENTER":80.4848,"MEAN_ANOMALY":279.6463,"EPHEMERIS_TYPE":0,"CLASSIFICATION_TYPE":"U","NORAD_CAT_ID":48987,"ELEMENT_SET_NO":999,"REV_AT_EPOCH":22251,"BSTAR":0.00051595622,"MEAN_MOTION_DOT":2.1e-6,"MEAN_MOTION_DDOT":0},{"OBJECT_NAME":"ONEWEB-0270","OBJECT_ID":"2021-060X","EPOCH":"2026-02-07T03:39:54.488736","MEAN_MOTION":13.16594458,"ECCENTRICITY":0.00013269,"INCLINATION":87.9005,"RA_OF_ASC_NODE":254.6666,"ARG_OF_PERICENTER":101.8092,"MEAN_ANOMALY":258.3188,"EPHEMERIS_TYPE":0,"CLASSIFICATION_TYPE":"U","NORAD_CAT_ID":48988,"ELEMENT_SET_NO":999,"REV_AT_EPOCH":22255,"BSTAR":-0.00018412566,"MEAN_MOTION_DOT":-5.8e-7,"MEAN_MOTION_DDOT":0},{"OBJECT_NAME":"ONEWEB-0271","OBJECT_ID":"2021-060Y","EPOCH":"2026-02-07T03:21:39.906144","MEAN_MOTION":13.16592496,"ECCENTRICITY":0.00012197,"INCLINATION":87.9008,"RA_OF_ASC_NODE":254.6589,"ARG_OF_PERICENTER":90.1553,"MEAN_ANOMALY":269.9717,"EPHEMERIS_TYPE":0,"CLASSIFICATION_TYPE":"U","NORAD_CAT_ID":48989,"ELEMENT_SET_NO":999,"REV_AT_EPOCH":22255,"BSTAR":0.00027224008,"MEAN_MOTION_DOT":1.17e-6,"MEAN_MOTION_DDOT":0},{"OBJECT_NAME":"ONEWEB-0272","OBJECT_ID":"2021-060Z","EPOCH":"2026-02-07T02:04:08.855040","MEAN_MOTION":13.16594451,"ECCENTRICITY":0.00012604,"INCLINATION":87.8999,"RA_OF_ASC_NODE":254.6811,"ARG_OF_PERICENTER":78.9748,"MEAN_ANOMALY":281.1525,"EPHEMERIS_TYPE":0,"CLASSIFICATION_TYPE":"U","NORAD_CAT_ID":48990,"ELEMENT_SET_NO":999,"REV_AT_EPOCH":22249,"BSTAR":3.5987335e-5,"MEAN_MOTION_DOT":2.7e-7,"MEAN_MOTION_DDOT":0},{"OBJECT_NAME":"ONEWEB-0273","OBJECT_ID":"2021-060AA","EPOCH":"2026-02-07T02:36:04.159872","MEAN_MOTION":13.16593832,"ECCENTRICITY":0.00014359,"INCLINATION":87.9003,"RA_OF_ASC_NODE":254.6757,"ARG_OF_PERICENTER":92.8428,"MEAN_ANOMALY":267.2867,"EPHEMERIS_TYPE":0,"CLASSIFICATION_TYPE":"U","NORAD_CAT_ID":48991,"ELEMENT_SET_NO":999,"REV_AT_EPOCH":22247,"BSTAR":4.6230899e-5,"MEAN_MOTION_DOT":3.1e-7,"MEAN_MOTION_DDOT":0},{"OBJECT_NAME":"ONEWEB-0274","OBJECT_ID":"2021-060AB","EPOCH":"2026-02-07T03:12:32.693472","MEAN_MOTION":13.1659471,"ECCENTRICITY":0.00013626,"INCLINATION":87.8994,"RA_OF_ASC_NODE":254.6869,"ARG_OF_PERICENTER":77.0399,"MEAN_ANOMALY":283.0884,"EPHEMERIS_TYPE":0,"CLASSIFICATION_TYPE":"U","NORAD_CAT_ID":48992,"ELEMENT_SET_NO":999,"REV_AT_EPOCH":22251,"BSTAR":0.00021685771,"MEAN_MOTION_DOT":9.6e-7,"MEAN_MOTION_DDOT":0},{"OBJECT_NAME":"ONEWEB-0275","OBJECT_ID":"2021-060AC","EPOCH":"2026-02-07T02:56:34.878624","MEAN_MOTION":13.1659473,"ECCENTRICITY":0.00013876,"INCLINATION":87.9001,"RA_OF_ASC_NODE":254.6658,"ARG_OF_PERICENTER":86.8423,"MEAN_ANOMALY":273.2867,"EPHEMERIS_TYPE":0,"CLASSIFICATION_TYPE":"U","NORAD_CAT_ID":48993,"ELEMENT_SET_NO":999,"REV_AT_EPOCH":22244,"BSTAR":0.00032583533,"MEAN_MOTION_DOT":1.37e-6,"MEAN_MOTION_DDOT":0},{"OBJECT_NAME":"ONEWEB-0276","OBJECT_ID":"2021-060AD","EPOCH":"2026-02-07T03:44:28.120992","MEAN_MOTION":13.16595296,"ECCENTRICITY":0.00015496,"INCLINATION":87.9006,"RA_OF_ASC_NODE":254.658,"ARG_OF_PERICENTER":95.7613,"MEAN_ANOMALY":264.3694,"EPHEMERIS_TYPE":0,"CLASSIFICATION_TYPE":"U","NORAD_CAT_ID":48994,"ELEMENT_SET_NO":999,"REV_AT_EPOCH":22246,"BSTAR":4.6649355e-5,"MEAN_MOTION_DOT":3.1e-7,"MEAN_MOTION_DDOT":0},{"OBJECT_NAME":"ONEWEB-0277","OBJECT_ID":"2021-060AE","EPOCH":"2026-02-07T02:13:15.587328","MEAN_MOTION":13.16595985,"ECCENTRICITY":0.00014084,"INCLINATION":87.8991,"RA_OF_ASC_NODE":254.6899,"ARG_OF_PERICENTER":92.2265,"MEAN_ANOMALY":267.9027,"EPHEMERIS_TYPE":0,"CLASSIFICATION_TYPE":"U","NORAD_CAT_ID":48995,"ELEMENT_SET_NO":999,"REV_AT_EPOCH":22244,"BSTAR":0.00014616101,"MEAN_MOTION_DOT":6.9e-7,"MEAN_MOTION_DDOT":0},{"OBJECT_NAME":"ONEWEB-0278","OBJECT_ID":"2021-060AF","EPOCH":"2026-02-07T01:59:35.276352","MEAN_MOTION":13.16594308,"ECCENTRICITY":0.00017205,"INCLINATION":87.9002,"RA_OF_ASC_NODE":254.669,"ARG_OF_PERICENTER":88.3761,"MEAN_ANOMALY":271.7567,"EPHEMERIS_TYPE":0,"CLASSIFICATION_TYPE":"U","NORAD_CAT_ID":48996,"ELEMENT_SET_NO":999,"REV_AT_EPOCH":22257,"BSTAR":-0.00010025235,"MEAN_MOTION_DOT":-2.5e-7,"MEAN_MOTION_DDOT":0},{"OBJECT_NAME":"ONEWEB-0279","OBJECT_ID":"2021-060AG","EPOCH":"2026-02-07T02:10:58.717632","MEAN_MOTION":13.16594231,"ECCENTRICITY":0.00012277,"INCLINATION":87.9005,"RA_OF_ASC_NODE":254.6665,"ARG_OF_PERICENTER":88.2311,"MEAN_ANOMALY":271.8961,"EPHEMERIS_TYPE":0,"CLASSIFICATION_TYPE":"U","NORAD_CAT_ID":48997,"ELEMENT_SET_NO":999,"REV_AT_EPOCH":22250,"BSTAR":-1.3964623e-5,"MEAN_MOTION_DOT":8.0e-8,"MEAN_MOTION_DDOT":0},{"OBJECT_NAME":"ONEWEB-0280","OBJECT_ID":"2021-060AH","EPOCH":"2026-02-07T02:32:37.847040","MEAN_MOTION":13.16595702,"ECCENTRICITY":0.00016147,"INCLINATION":87.9003,"RA_OF_ASC_NODE":254.6691,"ARG_OF_PERICENTER":101.9142,"MEAN_ANOMALY":258.217,"EPHEMERIS_TYPE":0,"CLASSIFICATION_TYPE":"U","NORAD_CAT_ID":48998,"ELEMENT_SET_NO":999,"REV_AT_EPOCH":22244,"BSTAR":0.00012646423,"MEAN_MOTION_DOT":6.1e-7,"MEAN_MOTION_DDOT":0},{"OBJECT_NAME":"ONEWEB-0281","OBJECT_ID":"2021-060AJ","EPOCH":"2026-02-07T02:40:37.680672","MEAN_MOTION":13.16594787,"ECCENTRICITY":0.00015109,"INCLINATION":87.9003,"RA_OF_ASC_NODE":254.6627,"ARG_OF_PERICENTER":83.8191,"MEAN_ANOMALY":276.3112,"EPHEMERIS_TYPE":0,"CLASSIFICATION_TYPE":"U","NORAD_CAT_ID":48999,"ELEMENT_SET_NO":999,"REV_AT_EPOCH":22251,"BSTAR":0.00016656658,"MEAN_MOTION_DOT":7.7e-7,"MEAN_MOTION_DDOT":0},{"OBJECT_NAME":"ONEWEB-0282","OBJECT_ID":"2021-060AK","EPOCH":"2026-02-07T03:23:56.619456","MEAN_MOTION":13.16595547,"ECCENTRICITY":0.00013853,"INCLINATION":87.9003,"RA_OF_ASC_NODE":254.6675,"ARG_OF_PERICENTER":92.2495,"MEAN_ANOMALY":267.8794,"EPHEMERIS_TYPE":0,"CLASSIFICATION_TYPE":"U","NORAD_CAT_ID":49000,"ELEMENT_SET_NO":999,"REV_AT_EPOCH":22249,"BSTAR":0.00052526277,"MEAN_MOTION_DOT":2.14e-6,"MEAN_MOTION_DDOT":0}]
