ONEWEB-0267             
1 48985U 21060U   26038.03395999  .00000116  00000+0  26862-3 0  9993
2 48985  87.9001 254.6787 0001290  89.5476 270.5803 13.16593969222464
ONEWEB-0268             
1 48986U 21060V   26038.15429165  .00000001  00000+0 -30024-4 0  9990
2 48986  87.9003 254.6638 0001448  87.1012 273.0284 13.16595610222744
ONEWEB-0269             
1 48987U 21060W   26038.13528722  .00000210  00000+0  51596-3 0  9995
2 48987  87.8993 254.6849 0001594  80.4848 279.6463 13.16594845222516
ONEWEB-0270             
1 48988U 21060X   26038.15271399 -.00000058  00000+0 -18413-3 0  9996
2 48988  87.9005 254.6666 0001326 101.8092 258.3188 13.16594458222553
ONEWEB-0271             
1 48989U 21060Y   26038.14004521  .00000117  00000+0  27224-3 0  9991
2 48989  87.9008 254.6589 0001219  90.1553 269.9717 13.16592496222550
ONEWEB-0272             
1 48990U 21060Z   26038.08621360  .00000027  00000+0  35987-4 0  9998
2 48990  87.8999 254.6811 0001260  78.9748 281.1525 13.16594451222493
ONEWEB-0273             
1 48991U 21060AA  26038.10838148  .00000031  00000+0  46231-4 0  9995
2 48991  87.9003 254.6757 0001435  92.8428 267.2867 13.16593832222478
ONEWEB-0274             
1 48992U 21060AB  26038.13371173  .00000096  00000+0  21686-3 0  9996
2 48992  87.8994 254.6869 0001362  77.0399 283.0884 13.16594710222518
ONEWEB-0275             
1 48993U 21060AC  26038.12262591  .00000137  00000+0  32584-3 0  9994
2 48993  87.9001 254.6658 0001387  86.8423 273.2867 13.16594730222444
ONEWEB-0276             
1 48994U 21060AD  26038.15588103  .00000031  00000+0  46649-4 0  9999
2 48994  87.9006 254.6580 0001549  95.7613 264.3694 13.16595296222463
ONEWEB-0277             
1 48995U 21060AE  26038.09254152  .00000069  00000+0  14616-3 0  9996
2 48995  87.8991 254.6899 0001408  92.2265 267.9027 13.16595985222440
ONEWEB-0278             
1 48996U 21060AF  26038.08304718 -.00000025  00000+0 -10025-3 0  9994
2 48996  87.9002 254.6690 0001720  88.3761 271.7567 13.16594308222572
ONEWEB-0279             
1 48997U 21060AG  26038.09095738  .00000008  00000+0 -13965-4 0  9992
2 48997  87.9005 254.6665 0001227  88.2311 271.8961 13.16594231222507
ONEWEB-0280             
1 48998U 21060AH  26038.10599360  .00000061  00000+0  12646-3 0  9997
2 48998  87.9003 254.6691 0001614 101.9142 258.2170 13.16595702222448
ONEWEB-0281             
1 48999U 21060AJ  26038.11154723  .00000077  00000+0  16657-3 0  9992
2 48999  87.9003 254.6627 0001510  83.8191 276.3112 13.16594787222512
ONEWEB-0282             
1 49000U 21060AK  26038.14162754  .00000214  00000+0  52526-3 0  9990
2 49000  87.9003 254.6675 0001385  92.2495 267.8794 13.16595547222493
